[{"OBJECT_NAME":"TRANSPORTER-12 OBJECT AZ","OBJECT_ID":"2025-009AZ","EPOCH":"2026-03-09T17:02:46.667040","MEAN_MOTION":15.30349724,"ECCENTRICITY":9.87e-5,"INCLINATION":97.3981,"RA_OF_ASC_NODE":151.9913,"ARG_OF_PERICENTER":45.3581,"MEAN_ANOMALY":314.774,"EPHEMERIS_TYPE":0,"CLASSIFICATION_TYPE":"U","NORAD_CAT_ID":62656,"ELEMENT_SET_NO":999,"REV_AT_EPOCH":6379,"BSTAR":0.00054902545,"MEAN_MOTION_DOT":0.00016057,"MEAN_MOTION_DDOT":0},{"OBJECT_NAME":"STARLINK-33843","OBJECT_ID":"2025-071Q","EPOCH":"2026-03-09T12:26:52.433952","MEAN_MOTION":15.30190705,"ECCENTRICITY":0.00013713,"INCLINATION":53.1604,"RA_OF_ASC_NODE":140.6904,"ARG_OF_PERICENTER":71.6545,"MEAN_ANOMALY":288.4605,"EPHEMERIS_TYPE":0,"CLASSIFICATION_TYPE":"U","NORAD_CAT_ID":63507,"ELEMENT_SET_NO":999,"REV_AT_EPOCH":5272,"BSTAR":0.0011375767,"MEAN_MOTION_DOT":0.00033475,"MEAN_MOTION_DDOT":0}]
